SITRO-AIS-57            
1 67256U 25313J   26022.16985632  .00015042  00000+0  69596-3 0  9991
2 67256  97.4084  99.1888 0017359 151.2550 208.9645 15.20096616  3741
SITRO-AIS-59            
1 67257U 25313K   26022.16934048  .00013577  00000+0  62849-3 0  9992
2 67257  97.4091  99.1913 0017128 153.2817 206.9304 15.20107464  3745
SITRO-AIS-58            
1 67258U 25313L   26022.16878203  .00014767  00000+0  68217-3 0  9990
2 67258  97.4086  99.1902 0017051 152.5570 207.6569 15.20160061  3744
2025-313M               
1 67259U 25313M   26022.16464301  .00019351  00000+0  88371-3 0  9998
2 67259  97.4130  99.2205 0016194 151.2639 208.9492 15.20510322  3749
SITRO-AIS-60            
1 67260U 25313N   26022.03535400  .00013341  00000+0  61631-3 0  9998
2 67260  97.4096  99.0660 0016544 153.2224 206.9869 15.20191659  3728
2025-313P               
1 67261U 25313P   26022.16229219  .00024757  00000+0  11198-2 0  9996
2 67261  97.4132  99.2242 0015872 151.6982 208.5119 15.20794153  3740
2025-313Q               
1 67262U 25313Q   26022.23047493  .00016000  00000+0  73254-3 0  9991
2 67262  97.4097  99.2638 0016098 153.1140 207.0933 15.20464695  3758
DCS-1                   
1 67263U 25313R   26022.09940991  .00015570  00000+0  71478-3 0  9998
2 67263  97.4111  99.1493 0016064 152.5832 207.6255 15.20378162  3732
2025-313S               
1 67264U 25313S   26022.23248659  .00010137  00000+0  46934-3 0  9990
2 67264  97.4181  99.2818 0016161 156.9984 203.1979 15.20190024  3751
SITRO-TD-4              
1 67265U 25313T   26022.09895494  .00014182  00000+0  65116-3 0  9997
2 67265  97.4090  99.1429 0016024 153.3734 206.8328 15.20395175  3730
SITRO-AIS-65            
1 67266U 25313U   26022.29629561  .00014201  00000+0  65169-3 0  9990
2 67266  97.4117  99.3455 0015924 151.4888 208.7222 15.20413481  3767
2025-313V               
1 67267U 25313V   26022.22971170  .00016013  00000+0  73264-3 0  9998
2 67267  97.4099  99.2675 0015106 157.1857 203.0052 15.20503194  3750
