CCSDS_OMM_VERS = 2.0
CREATION_DATE  = 
ORIGINATOR     = 

OBJECT_NAME    = SITRO-AIS-57
OBJECT_ID      = 2025-313J
CENTER_NAME    = EARTH
REF_FRAME      = TEME
TIME_SYSTEM    = UTC
MEAN_ELEMENT_THEORY = SGP/SGP4

EPOCH          = 2026-01-22T04:04:35.586048
MEAN_MOTION    = 15.20096616
ECCENTRICITY   = .00173599
INCLINATION    = 97.4084
RA_OF_ASC_NODE = 99.1888
ARG_OF_PERICENTER = 151.2550
MEAN_ANOMALY   = 208.9645

EPHEMERIS_TYPE = 0
CLASSIFICATION_TYPE = U
NORAD_CAT_ID   = 67256
ELEMENT_SET_NO = 999
REV_AT_EPOCH   = 374
BSTAR          = .69596029E-3
MEAN_MOTION_DOT = .15042E-3
MEAN_MOTION_DDOT = 0

CCSDS_OMM_VERS = 2.0
CREATION_DATE  = 
ORIGINATOR     = 

OBJECT_NAME    = SITRO-AIS-59
OBJECT_ID      = 2025-313K
CENTER_NAME    = EARTH
REF_FRAME      = TEME
TIME_SYSTEM    = UTC
MEAN_ELEMENT_THEORY = SGP/SGP4

EPOCH          = 2026-01-22T04:03:51.017472
MEAN_MOTION    = 15.20107464
ECCENTRICITY   = .00171282
INCLINATION    = 97.4091
RA_OF_ASC_NODE = 99.1913
ARG_OF_PERICENTER = 153.2817
MEAN_ANOMALY   = 206.9304

EPHEMERIS_TYPE = 0
CLASSIFICATION_TYPE = U
NORAD_CAT_ID   = 67257
ELEMENT_SET_NO = 999
REV_AT_EPOCH   = 374
BSTAR          = .62848545E-3
MEAN_MOTION_DOT = .13577E-3
MEAN_MOTION_DDOT = 0

CCSDS_OMM_VERS = 2.0
CREATION_DATE  = 
ORIGINATOR     = 

OBJECT_NAME    = SITRO-AIS-58
OBJECT_ID      = 2025-313L
CENTER_NAME    = EARTH
REF_FRAME      = TEME
TIME_SYSTEM    = UTC
MEAN_ELEMENT_THEORY = SGP/SGP4

EPOCH          = 2026-01-22T04:03:02.767392
MEAN_MOTION    = 15.20160061
ECCENTRICITY   = .00170517
INCLINATION    = 97.4086
RA_OF_ASC_NODE = 99.1902
ARG_OF_PERICENTER = 152.5570
MEAN_ANOMALY   = 207.6569

EPHEMERIS_TYPE = 0
CLASSIFICATION_TYPE = U
NORAD_CAT_ID   = 67258
ELEMENT_SET_NO = 999
REV_AT_EPOCH   = 374
BSTAR          = .68216614E-3
MEAN_MOTION_DOT = .14767E-3
MEAN_MOTION_DDOT = 0

CCSDS_OMM_VERS = 2.0
CREATION_DATE  = 
ORIGINATOR     = 

OBJECT_NAME    = 2025-313M
OBJECT_ID      = 2025-313M
CENTER_NAME    = EARTH
REF_FRAME      = TEME
TIME_SYSTEM    = UTC
MEAN_ELEMENT_THEORY = SGP/SGP4

EPOCH          = 2026-01-22T03:57:05.156064
MEAN_MOTION    = 15.20510322
ECCENTRICITY   = .00161941
INCLINATION    = 97.4130
RA_OF_ASC_NODE = 99.2205
ARG_OF_PERICENTER = 151.2639
MEAN_ANOMALY   = 208.9492

EPHEMERIS_TYPE = 0
CLASSIFICATION_TYPE = U
NORAD_CAT_ID   = 67259
ELEMENT_SET_NO = 999
REV_AT_EPOCH   = 374
BSTAR          = .8837081E-3
MEAN_MOTION_DOT = .19351E-3
MEAN_MOTION_DDOT = 0

CCSDS_OMM_VERS = 2.0
CREATION_DATE  = 
ORIGINATOR     = 

OBJECT_NAME    = SITRO-AIS-60
OBJECT_ID      = 2025-313N
CENTER_NAME    = EARTH
REF_FRAME      = TEME
TIME_SYSTEM    = UTC
MEAN_ELEMENT_THEORY = SGP/SGP4

EPOCH          = 2026-01-22T00:50:54.585600
MEAN_MOTION    = 15.20191659
ECCENTRICITY   = .00165443
INCLINATION    = 97.4096
RA_OF_ASC_NODE = 99.0660
ARG_OF_PERICENTER = 153.2224
MEAN_ANOMALY   = 206.9869

EPHEMERIS_TYPE = 0
CLASSIFICATION_TYPE = U
NORAD_CAT_ID   = 67260
ELEMENT_SET_NO = 999
REV_AT_EPOCH   = 372
BSTAR          = .6163096E-3
MEAN_MOTION_DOT = .13341E-3
MEAN_MOTION_DDOT = 0

CCSDS_OMM_VERS = 2.0
CREATION_DATE  = 
ORIGINATOR     = 

OBJECT_NAME    = 2025-313P
OBJECT_ID      = 2025-313P
CENTER_NAME    = EARTH
REF_FRAME      = TEME
TIME_SYSTEM    = UTC
MEAN_ELEMENT_THEORY = SGP/SGP4

EPOCH          = 2026-01-22T03:53:42.045216
MEAN_MOTION    = 15.20794153
ECCENTRICITY   = .00158729
INCLINATION    = 97.4132
RA_OF_ASC_NODE = 99.2242
ARG_OF_PERICENTER = 151.6982
MEAN_ANOMALY   = 208.5119

EPHEMERIS_TYPE = 0
CLASSIFICATION_TYPE = U
NORAD_CAT_ID   = 67261
ELEMENT_SET_NO = 999
REV_AT_EPOCH   = 374
BSTAR          = .11197516E-2
MEAN_MOTION_DOT = .24757E-3
MEAN_MOTION_DDOT = 0

CCSDS_OMM_VERS = 2.0
CREATION_DATE  = 
ORIGINATOR     = 

OBJECT_NAME    = 2025-313Q
OBJECT_ID      = 2025-313Q
CENTER_NAME    = EARTH
REF_FRAME      = TEME
TIME_SYSTEM    = UTC
MEAN_ELEMENT_THEORY = SGP/SGP4

EPOCH          = 2026-01-22T05:31:53.033952
MEAN_MOTION    = 15.20464695
ECCENTRICITY   = .00160988
INCLINATION    = 97.4097
RA_OF_ASC_NODE = 99.2638
ARG_OF_PERICENTER = 153.1140
MEAN_ANOMALY   = 207.0933

EPHEMERIS_TYPE = 0
CLASSIFICATION_TYPE = U
NORAD_CAT_ID   = 67262
ELEMENT_SET_NO = 999
REV_AT_EPOCH   = 375
BSTAR          = .73253507E-3
MEAN_MOTION_DOT = .16E-3
MEAN_MOTION_DDOT = 0

CCSDS_OMM_VERS = 2.0
CREATION_DATE  = 
ORIGINATOR     = 

OBJECT_NAME    = DCS-1
OBJECT_ID      = 2025-313R
CENTER_NAME    = EARTH
REF_FRAME      = TEME
TIME_SYSTEM    = UTC
MEAN_ELEMENT_THEORY = SGP/SGP4

EPOCH          = 2026-01-22T02:23:09.016224
MEAN_MOTION    = 15.20378162
ECCENTRICITY   = .00160647
INCLINATION    = 97.4111
RA_OF_ASC_NODE = 99.1493
ARG_OF_PERICENTER = 152.5832
MEAN_ANOMALY   = 207.6255

EPHEMERIS_TYPE = 0
CLASSIFICATION_TYPE = U
NORAD_CAT_ID   = 67263
ELEMENT_SET_NO = 999
REV_AT_EPOCH   = 373
BSTAR          = .71477904E-3
MEAN_MOTION_DOT = .1557E-3
MEAN_MOTION_DDOT = 0

CCSDS_OMM_VERS = 2.0
CREATION_DATE  = 
ORIGINATOR     = 

OBJECT_NAME    = 2025-313S
OBJECT_ID      = 2025-313S
CENTER_NAME    = EARTH
REF_FRAME      = TEME
TIME_SYSTEM    = UTC
MEAN_ELEMENT_THEORY = SGP/SGP4

EPOCH          = 2026-01-22T05:34:46.841376
MEAN_MOTION    = 15.20190024
ECCENTRICITY   = .00161619
INCLINATION    = 97.4181
RA_OF_ASC_NODE = 99.2818
ARG_OF_PERICENTER = 156.9984
MEAN_ANOMALY   = 203.1979

EPHEMERIS_TYPE = 0
CLASSIFICATION_TYPE = U
NORAD_CAT_ID   = 67264
ELEMENT_SET_NO = 999
REV_AT_EPOCH   = 375
BSTAR          = .46934452E-3
MEAN_MOTION_DOT = .10137E-3
MEAN_MOTION_DDOT = 0

CCSDS_OMM_VERS = 2.0
CREATION_DATE  = 
ORIGINATOR     = 

OBJECT_NAME    = SITRO-TD-4
OBJECT_ID      = 2025-313T
CENTER_NAME    = EARTH
REF_FRAME      = TEME
TIME_SYSTEM    = UTC
MEAN_ELEMENT_THEORY = SGP/SGP4

EPOCH          = 2026-01-22T02:22:29.706816
MEAN_MOTION    = 15.20395175
ECCENTRICITY   = .00160242
INCLINATION    = 97.4090
RA_OF_ASC_NODE = 99.1429
ARG_OF_PERICENTER = 153.3734
MEAN_ANOMALY   = 206.8328

EPHEMERIS_TYPE = 0
CLASSIFICATION_TYPE = U
NORAD_CAT_ID   = 67265
ELEMENT_SET_NO = 999
REV_AT_EPOCH   = 373
BSTAR          = .65116111E-3
MEAN_MOTION_DOT = .14182E-3
MEAN_MOTION_DDOT = 0

CCSDS_OMM_VERS = 2.0
CREATION_DATE  = 
ORIGINATOR     = 

OBJECT_NAME    = SITRO-AIS-65
OBJECT_ID      = 2025-313U
CENTER_NAME    = EARTH
REF_FRAME      = TEME
TIME_SYSTEM    = UTC
MEAN_ELEMENT_THEORY = SGP/SGP4

EPOCH          = 2026-01-22T07:06:39.940704
MEAN_MOTION    = 15.20413481
ECCENTRICITY   = .00159249
INCLINATION    = 97.4117
RA_OF_ASC_NODE = 99.3455
ARG_OF_PERICENTER = 151.4888
MEAN_ANOMALY   = 208.7222

EPHEMERIS_TYPE = 0
CLASSIFICATION_TYPE = U
NORAD_CAT_ID   = 67266
ELEMENT_SET_NO = 999
REV_AT_EPOCH   = 376
BSTAR          = .65168881E-3
MEAN_MOTION_DOT = .14201E-3
MEAN_MOTION_DDOT = 0

CCSDS_OMM_VERS = 2.0
CREATION_DATE  = 
ORIGINATOR     = 

OBJECT_NAME    = 2025-313V
OBJECT_ID      = 2025-313V
CENTER_NAME    = EARTH
REF_FRAME      = TEME
TIME_SYSTEM    = UTC
MEAN_ELEMENT_THEORY = SGP/SGP4

EPOCH          = 2026-01-22T05:30:47.090880
MEAN_MOTION    = 15.20503194
ECCENTRICITY   = .00151064
INCLINATION    = 97.4099
RA_OF_ASC_NODE = 99.2675
ARG_OF_PERICENTER = 157.1857
MEAN_ANOMALY   = 203.0052

EPHEMERIS_TYPE = 0
CLASSIFICATION_TYPE = U
NORAD_CAT_ID   = 67267
ELEMENT_SET_NO = 999
REV_AT_EPOCH   = 375
BSTAR          = .73263747E-3
MEAN_MOTION_DOT = .16013E-3
MEAN_MOTION_DDOT = 0

